STARLINK-4150           
1 53134U 22083C   26068.60842911 -.00001686  00000+0 -87874-4 0  9994
2 53134  53.2177 174.4821 0001347 106.7574 253.3566 15.08830336201207
DISKSAT B               
1 67220U 25305B   26068.81497770  .00012481  00000+0  82401-3 0  9990
2 67220  45.0018 250.2098 0003783 311.4052  48.6498 15.07484556 12311
